{
  "type": "FeatureCollection",
  "features": [
    {
      "type": "Feature",
      "properties": {
        "norad_id": 66570,
        "name": "STARLINK-35834",
        "group": "last-30-days",
        "lat": -42.43136420539114,
        "lon": 30.860342209169456,
        "alt_km": 416.2548939495746,
        "timestamp": "2025-12-14T16:47:39.436802+00:00",
        "meta_object_name": "STARLINK-35834",
        "meta_object_id": "2025-268P",
        "meta_epoch": "2025-12-13T17:57:31.637376",
        "meta_mean_motion": 15.50614796,
        "meta_eccentricity": 0.00018898,
        "meta_inclination": 43,
        "meta_ra_of_asc_node": 115.2376,
        "meta_arg_of_pericenter": 284.6417,
        "meta_mean_anomaly": 75.4234,
        "meta_ephemeris_type": 0,
        "meta_classification_type": "U",
        "meta_norad_cat_id": 66570,
        "meta_element_set_no": 999,
        "meta_rev_at_epoch": 478,
        "meta_bstar": 0.002405202,
        "meta_mean_motion_dot": 0.00143561,
        "meta_mean_motion_ddot": 0,
        "tle_line1": "1 66570U 25268P   25347.74828284  .00143561  00000+0  24052-2 0  9995",
        "tle_line2": "2 66570  43.0000 115.2376 0001889 284.6417  75.4234 15.50614796  4784"
      },
      "geometry": {
        "type": "Point",
        "coordinates": [
          30.860342209169456,
          -42.43136420539114
        ]
      }
    },
    {
      "type": "Feature",
      "properties": {
        "norad_id": 66571,
        "name": "STARLINK-35836",
        "group": "last-30-days",
        "lat": -42.15575100541492,
        "lon": 33.35798147059115,
        "alt_km": 415.7087138345969,
        "timestamp": "2025-12-14T16:47:39.436814+00:00",
        "meta_object_name": "STARLINK-35836",
        "meta_object_id": "2025-268Q",
        "meta_epoch": "2025-12-13T17:57:01.488960",
        "meta_mean_motion": 15.50605807,
        "meta_eccentricity": 0.00029172,
        "meta_inclination": 42.9993,
        "meta_ra_of_asc_node": 115.2344,
        "meta_arg_of_pericenter": 256.7028,
        "meta_mean_anomaly": 103.3507,
        "meta_ephemeris_type": 0,
        "meta_classification_type": "U",
        "meta_norad_cat_id": 66571,
        "meta_element_set_no": 999,
        "meta_rev_at_epoch": 478,
        "meta_bstar": 0.00215814,
        "meta_mean_motion_dot": 0.00128497,
        "meta_mean_motion_ddot": 0,
        "tle_line1": "1 66571U 25268Q   25347.74793390  .00128497  00000+0  21581-2 0  9990",
        "tle_line2": "2 66571  42.9993 115.2344 0002917 256.7028 103.3507 15.50605807  4787"
      },
      "geometry": {
        "type": "Point",
        "coordinates": [
          33.35798147059115,
          -42.15575100541492
        ]
      }
    },
    {
      "type": "Feature",
      "properties": {
        "norad_id": 66572,
        "name": "STARLINK-35870",
        "group": "last-30-days",
        "lat": -41.8308474550453,
        "lon": 35.80858811304335,
        "alt_km": 416.77453408585734,
        "timestamp": "2025-12-14T16:47:39.436824+00:00",
        "meta_object_name": "STARLINK-35870",
        "meta_object_id": "2025-268R",
        "meta_epoch": "2025-12-13T17:56:32.515584",
        "meta_mean_motion": 15.50601622,
        "meta_eccentricity": 0.00012562,
        "meta_inclination": 42.9995,
        "meta_ra_of_asc_node": 115.2336,
        "meta_arg_of_pericenter": 283.973,
        "meta_mean_anomaly": 76.099,
        "meta_ephemeris_type": 0,
        "meta_classification_type": "U",
        "meta_norad_cat_id": 66572,
        "meta_element_set_no": 999,
        "meta_rev_at_epoch": 478,
        "meta_bstar": 0.002096182,
        "meta_mean_motion_dot": 0.00124709,
        "meta_mean_motion_ddot": 0,
        "tle_line1": "1 66572U 25268R   25347.74759856  .00124709  00000+0  20962-2 0  9994",
        "tle_line2": "2 66572  42.9995 115.2336 0001256 283.9730  76.0990 15.50601622  4781"
      },
      "geometry": {
        "type": "Point",
        "coordinates": [
          35.80858811304335,
          -41.8308474550453
        ]
      }
    },
    {
      "type": "Feature",
      "properties": {
        "norad_id": 66573,
        "name": "STARLINK-35650",
        "group": "last-30-days",
        "lat": -41.40959765459733,
        "lon": 38.495970755516645,
        "alt_km": 416.55131204548525,
        "timestamp": "2025-12-14T16:47:39.436834+00:00",
        "meta_object_name": "STARLINK-35650",
        "meta_object_id": "2025-268S",
        "meta_epoch": "2025-12-13T17:56:02.647104",
        "meta_mean_motion": 15.50624134,
        "meta_eccentricity": 0.0001486,
        "meta_inclination": 42.9999,
        "meta_ra_of_asc_node": 115.2295,
        "meta_arg_of_pericenter": 306.7701,
        "meta_mean_anomaly": 53.3023,
        "meta_ephemeris_type": 0,
        "meta_classification_type": "U",
        "meta_norad_cat_id": 66573,
        "meta_element_set_no": 999,
        "meta_rev_at_epoch": 478,
        "meta_bstar": 0.0023857445,
        "meta_mean_motion_dot": 0.00142422,
        "meta_mean_motion_ddot": 0,
        "tle_line1": "1 66573U 25268S   25347.74725286  .00142422  00000+0  23857-2 0  9993",
        "tle_line2": "2 66573  42.9999 115.2295 0001486 306.7701  53.3023 15.50624134  4785"
      },
      "geometry": {
        "type": "Point",
        "coordinates": [
          38.495970755516645,
          -41.40959765459733
        ]
      }
    },
    {
      "type": "Feature",
      "properties": {
        "norad_id": 66574,
        "name": "STARLINK-35812",
        "group": "last-30-days",
        "lat": -40.9757687135168,
        "lon": 40.89020164857711,
        "alt_km": 416.4028591330016,
        "timestamp": "2025-12-14T16:47:39.436847+00:00",
        "meta_object_name": "STARLINK-35812",
        "meta_object_id": "2025-268T",
        "meta_epoch": "2025-12-13T17:55:33.072384",
        "meta_mean_motion": 15.50614671,
        "meta_eccentricity": 0.00016881,
        "meta_inclination": 42.9998,
        "meta_ra_of_asc_node": 115.2267,
        "meta_arg_of_pericenter": 299.4841,
        "meta_mean_anomaly": 60.585,
        "meta_ephemeris_type": 0,
        "meta_classification_type": "U",
        "meta_norad_cat_id": 66574,
        "meta_element_set_no": 999,
        "meta_rev_at_epoch": 478,
        "meta_bstar": 0.0022841888,
        "meta_mean_motion_dot": 0.0013619,
        "meta_mean_motion_ddot": 0,
        "tle_line1": "1 66574U 25268T   25347.74691056  .00136190  00000+0  22842-2 0  9999",
        "tle_line2": "2 66574  42.9998 115.2267 0001688 299.4841  60.5850 15.50614671  4784"
      },
      "geometry": {
        "type": "Point",
        "coordinates": [
          40.89020164857711,
          -40.9757687135168
        ]
      }
    },
    {
      "type": "Feature",
      "properties": {
        "norad_id": 66575,
        "name": "STARLINK-35810",
        "group": "last-30-days",
        "lat": -40.49064972532092,
        "lon": 43.25979740546313,
        "alt_km": 416.78823177499635,
        "timestamp": "2025-12-14T16:47:39.436857+00:00",
        "meta_object_name": "STARLINK-35810",
        "meta_object_id": "2025-268U",
        "meta_epoch": "2025-12-13T17:55:03.464832",
        "meta_mean_motion": 15.50606032,
        "meta_eccentricity": 0.0001105,
        "meta_inclination": 42.9995,
        "meta_ra_of_asc_node": 115.2229,
        "meta_arg_of_pericenter": 286.4872,
        "meta_mean_anomaly": 73.5867,
        "meta_ephemeris_type": 0,
        "meta_classification_type": "U",
        "meta_norad_cat_id": 66575,
        "meta_element_set_no": 999,
        "meta_rev_at_epoch": 478,
        "meta_bstar": 0.0021348191,
        "meta_mean_motion_dot": 0.00127073,
        "meta_mean_motion_ddot": 0,
        "tle_line1": "1 66575U 25268U   25347.74656788  .00127073  00000+0  21348-2 0  9993",
        "tle_line2": "2 66575  42.9995 115.2229 0001105 286.4872  73.5867 15.50606032  4788"
      },
      "geometry": {
        "type": "Point",
        "coordinates": [
          43.25979740546313,
          -40.49064972532092
        ]
      }
    },
    {
      "type": "Feature",
      "properties": {
        "norad_id": 66576,
        "name": "STARLINK-35814",
        "group": "last-30-days",
        "lat": -39.93879488908346,
        "lon": 45.673361873653725,
        "alt_km": 416.6115464696659,
        "timestamp": "2025-12-14T16:47:39.436868+00:00",
        "meta_object_name": "STARLINK-35814",
        "meta_object_id": "2025-268V",
        "meta_epoch": "2025-12-13T17:54:33.819264",
        "meta_mean_motion": 15.50605603,
        "meta_eccentricity": 0.00013372,
        "meta_inclination": 42.9993,
        "meta_ra_of_asc_node": 115.2201,
        "meta_arg_of_pericenter": 269.2713,
        "meta_mean_anomaly": 90.7994,
        "meta_ephemeris_type": 0,
        "meta_classification_type": "U",
        "meta_norad_cat_id": 66576,
        "meta_element_set_no": 999,
        "meta_rev_at_epoch": 478,
        "meta_bstar": 0.0021986442,
        "meta_mean_motion_dot": 0.00130946,
        "meta_mean_motion_ddot": 0,
        "tle_line1": "1 66576U 25268V   25347.74622476  .00130946  00000+0  21986-2 0  9992",
        "tle_line2": "2 66576  42.9993 115.2201 0001337 269.2713  90.7994 15.50605603  4782"
      },
      "geometry": {
        "type": "Point",
        "coordinates": [
          45.673361873653725,
          -39.93879488908346
        ]
      }
    }
  ]
}